STARLINK-36937          
1 68113U 26044N   26094.91668981 -.01932505  00000+0 -40841-1 0  9998
2 68113  97.2854  56.2323 0001910 103.3360 157.7414 15.48304465  5570
STARLINK-36229          
1 68114U 26044P   26094.91668981 -.01936280  00000+0 -41837-1 0  9999
2 68114  97.2852  56.2284 0001902  84.0115 170.2133 15.47677741  5611
STARLINK-36392          
1 68115U 26044Q   26094.91668981 -.01356055  00000+0 -27294-1 0  9997
2 68115  97.2858  56.2055 0002249 112.0388  94.7499 15.49595313  5614
STARLINK-36805          
1 68116U 26044R   26094.91668981 -.00026310  00000+0 -48341-3 0  9993
2 68116  97.2856  56.2199 0001800 103.3113 135.7081 15.49204813  5618
STARLINK-36844          
1 68117U 26044S   26094.91668981 -.01904442  00000+0 -38772-1 0  9991
2 68117  97.2849  56.2451 0001928  92.4236 200.4696 15.49319868  5571
STARLINK-36789          
1 68118U 26044T   26094.91668981 -.01926086  00000+0 -39690-1 0  9990
2 68118  97.2851  56.2537 0001878 107.4736 205.8959 15.49013033  5572
STARLINK-36850          
1 68119U 26044U   26094.91668981 -.01364039  00000+0 -27497-1 0  9997
2 68119  97.2854  56.2550 0001825  98.2664 217.3600 15.49573825  5571
STARLINK-36868          
1 68120U 26044V   26094.91668981 -.01924189  00000+0 -38874-1 0  9998
2 68120  97.2853  56.2635 0001705 107.5374 228.2434 15.49571651  5576
STARLINK-36855          
1 68121U 26044W   26094.91668981 -.00094880  00000+0 -17609-2 0  9998
2 68121  97.2848  56.2502 0001605 101.4823 206.2829 15.49237158  5570
STARLINK-36366          
1 68122U 26044X   26094.91668981 -.00042312  00000+0 -78011-3 0  9997
2 68122  97.2850  56.2538 0001797 103.2841 213.2869 15.49202183  5612
STARLINK-36922          
1 68123U 26044Y   26094.91668981  .00078214  00000+0  14281-2 0  9994
2 68123  97.2853  56.2646 0001664  76.4198 265.3929 15.49137093  5617
STARLINK-36938          
1 68124U 26044Z   26094.84687847  .00178312  00000+0  11738-2 0  9993
2 68124  97.2862  56.3682 0001549  11.8244 348.3057 15.75145208  5605
