CCSDS_OMM_VERS = 2.0
CREATION_DATE  = 
ORIGINATOR     = 

OBJECT_NAME    = STARLINK-36937
OBJECT_ID      = 2026-044N
CENTER_NAME    = EARTH
REF_FRAME      = TEME
TIME_SYSTEM    = UTC
MEAN_ELEMENT_THEORY = SGP/SGP4

EPOCH          = 2026-04-04T22:00:01.999584
MEAN_MOTION    = 15.48304465
ECCENTRICITY   = .00019105
INCLINATION    = 97.2854
RA_OF_ASC_NODE = 56.2323
ARG_OF_PERICENTER = 103.3360
MEAN_ANOMALY   = 157.7414

EPHEMERIS_TYPE = 0
CLASSIFICATION_TYPE = U
NORAD_CAT_ID   = 68113
ELEMENT_SET_NO = 999
REV_AT_EPOCH   = 557
BSTAR          = -.40840831E-1
MEAN_MOTION_DOT = -.1932505E-1
MEAN_MOTION_DDOT = 0

CCSDS_OMM_VERS = 2.0
CREATION_DATE  = 
ORIGINATOR     = 

OBJECT_NAME    = STARLINK-36229
OBJECT_ID      = 2026-044P
CENTER_NAME    = EARTH
REF_FRAME      = TEME
TIME_SYSTEM    = UTC
MEAN_ELEMENT_THEORY = SGP/SGP4

EPOCH          = 2026-04-04T22:00:01.999584
MEAN_MOTION    = 15.47677741
ECCENTRICITY   = .0001902
INCLINATION    = 97.2852
RA_OF_ASC_NODE = 56.2284
ARG_OF_PERICENTER = 84.0115
MEAN_ANOMALY   = 170.2133

EPHEMERIS_TYPE = 0
CLASSIFICATION_TYPE = U
NORAD_CAT_ID   = 68114
ELEMENT_SET_NO = 999
REV_AT_EPOCH   = 561
BSTAR          = -.41836781E-1
MEAN_MOTION_DOT = -.193628E-1
MEAN_MOTION_DDOT = 0

CCSDS_OMM_VERS = 2.0
CREATION_DATE  = 
ORIGINATOR     = 

OBJECT_NAME    = STARLINK-36392
OBJECT_ID      = 2026-044Q
CENTER_NAME    = EARTH
REF_FRAME      = TEME
TIME_SYSTEM    = UTC
MEAN_ELEMENT_THEORY = SGP/SGP4

EPOCH          = 2026-04-04T22:00:01.999584
MEAN_MOTION    = 15.49595313
ECCENTRICITY   = .00022495
INCLINATION    = 97.2858
RA_OF_ASC_NODE = 56.2055
ARG_OF_PERICENTER = 112.0388
MEAN_ANOMALY   = 94.7499

EPHEMERIS_TYPE = 0
CLASSIFICATION_TYPE = U
NORAD_CAT_ID   = 68115
ELEMENT_SET_NO = 999
REV_AT_EPOCH   = 561
BSTAR          = -.27293678E-1
MEAN_MOTION_DOT = -.1356055E-1
MEAN_MOTION_DDOT = 0

CCSDS_OMM_VERS = 2.0
CREATION_DATE  = 
ORIGINATOR     = 

OBJECT_NAME    = STARLINK-36805
OBJECT_ID      = 2026-044R
CENTER_NAME    = EARTH
REF_FRAME      = TEME
TIME_SYSTEM    = UTC
MEAN_ELEMENT_THEORY = SGP/SGP4

EPOCH          = 2026-04-04T22:00:01.999584
MEAN_MOTION    = 15.49204813
ECCENTRICITY   = .00018007
INCLINATION    = 97.2856
RA_OF_ASC_NODE = 56.2199
ARG_OF_PERICENTER = 103.3113
MEAN_ANOMALY   = 135.7081

EPHEMERIS_TYPE = 0
CLASSIFICATION_TYPE = U
NORAD_CAT_ID   = 68116
ELEMENT_SET_NO = 999
REV_AT_EPOCH   = 561
BSTAR          = -.48340936E-3
MEAN_MOTION_DOT = -.2631E-3
MEAN_MOTION_DDOT = 0

CCSDS_OMM_VERS = 2.0
CREATION_DATE  = 
ORIGINATOR     = 

OBJECT_NAME    = STARLINK-36844
OBJECT_ID      = 2026-044S
CENTER_NAME    = EARTH
REF_FRAME      = TEME
TIME_SYSTEM    = UTC
MEAN_ELEMENT_THEORY = SGP/SGP4

EPOCH          = 2026-04-04T22:00:01.999584
MEAN_MOTION    = 15.49319868
ECCENTRICITY   = .00019289
INCLINATION    = 97.2849
RA_OF_ASC_NODE = 56.2451
ARG_OF_PERICENTER = 92.4236
MEAN_ANOMALY   = 200.4696

EPHEMERIS_TYPE = 0
CLASSIFICATION_TYPE = U
NORAD_CAT_ID   = 68117
ELEMENT_SET_NO = 999
REV_AT_EPOCH   = 557
BSTAR          = -.38771985E-1
MEAN_MOTION_DOT = -.1904442E-1
MEAN_MOTION_DDOT = 0

CCSDS_OMM_VERS = 2.0
CREATION_DATE  = 
ORIGINATOR     = 

OBJECT_NAME    = STARLINK-36789
OBJECT_ID      = 2026-044T
CENTER_NAME    = EARTH
REF_FRAME      = TEME
TIME_SYSTEM    = UTC
MEAN_ELEMENT_THEORY = SGP/SGP4

EPOCH          = 2026-04-04T22:00:01.999584
MEAN_MOTION    = 15.49013033
ECCENTRICITY   = .00018787
INCLINATION    = 97.2851
RA_OF_ASC_NODE = 56.2537
ARG_OF_PERICENTER = 107.4736
MEAN_ANOMALY   = 205.8959

EPHEMERIS_TYPE = 0
CLASSIFICATION_TYPE = U
NORAD_CAT_ID   = 68118
ELEMENT_SET_NO = 999
REV_AT_EPOCH   = 557
BSTAR          = -.3968974E-1
MEAN_MOTION_DOT = -.1926086E-1
MEAN_MOTION_DDOT = 0

CCSDS_OMM_VERS = 2.0
CREATION_DATE  = 
ORIGINATOR     = 

OBJECT_NAME    = STARLINK-36850
OBJECT_ID      = 2026-044U
CENTER_NAME    = EARTH
REF_FRAME      = TEME
TIME_SYSTEM    = UTC
MEAN_ELEMENT_THEORY = SGP/SGP4

EPOCH          = 2026-04-04T22:00:01.999584
MEAN_MOTION    = 15.49573825
ECCENTRICITY   = .00018259
INCLINATION    = 97.2854
RA_OF_ASC_NODE = 56.2550
ARG_OF_PERICENTER = 98.2664
MEAN_ANOMALY   = 217.3600

EPHEMERIS_TYPE = 0
CLASSIFICATION_TYPE = U
NORAD_CAT_ID   = 68119
ELEMENT_SET_NO = 999
REV_AT_EPOCH   = 557
BSTAR          = -.27496638E-1
MEAN_MOTION_DOT = -.1364039E-1
MEAN_MOTION_DDOT = 0

CCSDS_OMM_VERS = 2.0
CREATION_DATE  = 
ORIGINATOR     = 

OBJECT_NAME    = STARLINK-36868
OBJECT_ID      = 2026-044V
CENTER_NAME    = EARTH
REF_FRAME      = TEME
TIME_SYSTEM    = UTC
MEAN_ELEMENT_THEORY = SGP/SGP4

EPOCH          = 2026-04-04T22:00:01.999584
MEAN_MOTION    = 15.49571651
ECCENTRICITY   = .00017056
INCLINATION    = 97.2853
RA_OF_ASC_NODE = 56.2635
ARG_OF_PERICENTER = 107.5374
MEAN_ANOMALY   = 228.2434

EPHEMERIS_TYPE = 0
CLASSIFICATION_TYPE = U
NORAD_CAT_ID   = 68120
ELEMENT_SET_NO = 999
REV_AT_EPOCH   = 557
BSTAR          = -.38874336E-1
MEAN_MOTION_DOT = -.1924189E-1
MEAN_MOTION_DDOT = 0

CCSDS_OMM_VERS = 2.0
CREATION_DATE  = 
ORIGINATOR     = 

OBJECT_NAME    = STARLINK-36855
OBJECT_ID      = 2026-044W
CENTER_NAME    = EARTH
REF_FRAME      = TEME
TIME_SYSTEM    = UTC
MEAN_ELEMENT_THEORY = SGP/SGP4

EPOCH          = 2026-04-04T22:00:01.999584
MEAN_MOTION    = 15.49237158
ECCENTRICITY   = .00016057
INCLINATION    = 97.2848
RA_OF_ASC_NODE = 56.2502
ARG_OF_PERICENTER = 101.4823
MEAN_ANOMALY   = 206.2829

EPHEMERIS_TYPE = 0
CLASSIFICATION_TYPE = U
NORAD_CAT_ID   = 68121
ELEMENT_SET_NO = 999
REV_AT_EPOCH   = 557
BSTAR          = -.17609125E-2
MEAN_MOTION_DOT = -.9488E-3
MEAN_MOTION_DDOT = 0

CCSDS_OMM_VERS = 2.0
CREATION_DATE  = 
ORIGINATOR     = 

OBJECT_NAME    = STARLINK-36366
OBJECT_ID      = 2026-044X
CENTER_NAME    = EARTH
REF_FRAME      = TEME
TIME_SYSTEM    = UTC
MEAN_ELEMENT_THEORY = SGP/SGP4

EPOCH          = 2026-04-04T22:00:01.999584
MEAN_MOTION    = 15.49202183
ECCENTRICITY   = .00017971
INCLINATION    = 97.2850
RA_OF_ASC_NODE = 56.2538
ARG_OF_PERICENTER = 103.2841
MEAN_ANOMALY   = 213.2869

EPHEMERIS_TYPE = 0
CLASSIFICATION_TYPE = U
NORAD_CAT_ID   = 68122
ELEMENT_SET_NO = 999
REV_AT_EPOCH   = 561
BSTAR          = -.78010505E-3
MEAN_MOTION_DOT = -.42312E-3
MEAN_MOTION_DDOT = 0

CCSDS_OMM_VERS = 2.0
CREATION_DATE  = 
ORIGINATOR     = 

OBJECT_NAME    = STARLINK-36922
OBJECT_ID      = 2026-044Y
CENTER_NAME    = EARTH
REF_FRAME      = TEME
TIME_SYSTEM    = UTC
MEAN_ELEMENT_THEORY = SGP/SGP4

EPOCH          = 2026-04-04T22:00:01.999584
MEAN_MOTION    = 15.49137093
ECCENTRICITY   = .00016647
INCLINATION    = 97.2853
RA_OF_ASC_NODE = 56.2646
ARG_OF_PERICENTER = 76.4198
MEAN_ANOMALY   = 265.3929

EPHEMERIS_TYPE = 0
CLASSIFICATION_TYPE = U
NORAD_CAT_ID   = 68123
ELEMENT_SET_NO = 999
REV_AT_EPOCH   = 561
BSTAR          = .14280923E-2
MEAN_MOTION_DOT = .78214E-3
MEAN_MOTION_DDOT = 0

CCSDS_OMM_VERS = 2.0
CREATION_DATE  = 
ORIGINATOR     = 

OBJECT_NAME    = STARLINK-36938
OBJECT_ID      = 2026-044Z
CENTER_NAME    = EARTH
REF_FRAME      = TEME
TIME_SYSTEM    = UTC
MEAN_ELEMENT_THEORY = SGP/SGP4

EPOCH          = 2026-04-04T20:19:30.299808
MEAN_MOTION    = 15.75145208
ECCENTRICITY   = .00015494
INCLINATION    = 97.2862
RA_OF_ASC_NODE = 56.3682
ARG_OF_PERICENTER = 11.8244
MEAN_ANOMALY   = 348.3057

EPHEMERIS_TYPE = 0
CLASSIFICATION_TYPE = U
NORAD_CAT_ID   = 68124
ELEMENT_SET_NO = 999
REV_AT_EPOCH   = 560
BSTAR          = .11738183E-2
MEAN_MOTION_DOT = .178312E-2
MEAN_MOTION_DDOT = 0

